NORAD_CAT_ID,OBJECT_NAME,OBJECT_TYPE,EPOCH,MEAN_MOTION,ECCENTRICITY,INCLINATION,RA_OF_ASC_NODE,ARG_OF_PERICENTER,MEAN_ANOMALY,BSTAR,MEAN_MOTION_DOT,MEAN_MOTION_DDOT,TLE_LINE0,TLE_LINE1,TLE_LINE2,SEMIMAJOR_AXIS,PERIOD,APOGEE,PERIGEE,DECAYED
51794.0,STARLINK-3573,PAYLOAD,2024-05-31 22:12:39,15.08849138,0.0001278,53.2176,12.5553,88.0568,272.057,0.00010391,1.367e-05,0.0,0 STARLINK-3573,1 51794U 22017AC  24152.92546250  .00001367  00000-0  10391-3 0  9999,2 51794  53.2176  12.5553 0001278  88.0568 272.0570 15.08849138126285,6917.852,95.437,540.602,538.833,0.0
51794.0,STARLINK-3573,PAYLOAD,2024-06-01 07:44:58,15.08843351,0.0001229,53.2176,10.771,86.2584,273.8548,4.1816e-06,-2.21e-06,0.0,0 STARLINK-3573,1 51794U 22017AC  24153.32290455 -.00000221  00000-0  41816-5 0  9994,2 51794  53.2176  10.7710 0001229  86.2584 273.8548 15.08843351126346,6917.87,95.437,540.585,538.885,0.0
51794.0,STARLINK-3573,PAYLOAD,2024-06-01 20:28:04,15.08836004,0.0001107,53.2168,8.3917,83.4581,276.6538,-0.00011731,-2.154e-05,0.0,0 STARLINK-3573,1 51794U 22017AC  24153.85282980 -.00002154  00000-0 -11731-3 0  9995,2 51794  53.2168   8.3917 0001107  83.4581 276.6538 15.08836004126426,6917.893,95.438,540.523,538.992,0.0
51794.0,STARLINK-3573,PAYLOAD,2024-06-02 07:35:46,15.08842239,0.0001171,53.2176,6.3115,92.9985,267.1141,-1.1674e-05,-4.74e-06,0.0,0 STARLINK-3573,1 51794U 22017AC  24154.31651076 -.00000474  00000-0 -11674-4 0  9993,2 51794  53.2176   6.3115 0001171  92.9985 267.1141 15.08842239126496,6917.874,95.437,540.549,538.928,0.0
51794.0,STARLINK-3573,PAYLOAD,2024-06-02 20:18:51,15.08842557,0.0001148,53.2177,3.9321,94.795,265.3173,9.4205e-05,1.212e-05,0.0,0 STARLINK-3573,1 51794U 22017AC  24154.84642955  .00001212  00000-0  94205-4 0  9997,2 51794  53.2177   3.9321 0001148  94.7950 265.3173 15.08842557126572,6917.873,95.437,540.532,538.943,0.0
51794.0,STARLINK-3573,PAYLOAD,2024-06-03 13:48:06,15.08828759,0.0001287,53.2179,0.6614,92.2897,267.8242,3.3613e-05,2.47e-06,0.0,0 STARLINK-3573,1 51794U 22017AC  24155.57508082  .00000247  00000-0  33613-4 0  9993,2 51794  53.2179   0.6614 0001287  92.2897 267.8242 15.08828759126684,6917.915,95.438,540.67,538.889,0.0
51794.0,STARLINK-3573,PAYLOAD,2024-06-03 20:09:39,15.08835782,0.0001288,53.2191,359.4707,102.7055,257.4081,0.00015984,2.257e-05,0.0,0 STARLINK-3573,1 51794U 22017AC  24155.84003677  .00002257  00000-0  15984-3 0  9996,2 51794  53.2191 359.4707 0001288 102.7055 257.4081 15.08835782126725,6917.893,95.438,540.649,538.867,0.0
51794.0,STARLINK-3573,PAYLOAD,2024-06-04 20:00:27,15.08832883,5.76e-05,53.2142,355.0111,71.7746,288.3309,6.2747e-05,7.11e-06,0.0,0 STARLINK-3573,1 51794U 22017AC  24156.83364758  .00000711  00000-0  62747-4 0  9999,2 51794  53.2142 355.0111 0000576  71.7746 288.3309 15.08832883126874,6917.902,95.438,540.166,539.369,0.0
51794.0,STARLINK-3573,PAYLOAD,2024-06-04 23:11:13,15.08830768,0.0001529,53.2142,354.4169,88.8299,271.2868,0.00011383,1.524e-05,0.0,0 STARLINK-3573,1 51794U 22017AC  24156.96612942  .00001524  00000-0  11383-3 0  9996,2 51794  53.2142 354.4169 0001529  88.8299 271.2868 15.08830768126894,6917.909,95.438,540.831,538.716,0.0
51794.0,STARLINK-3573,PAYLOAD,2024-06-05 13:29:41,15.08844428,0.0001262,53.2165,351.7409,86.8398,273.2738,0.00030732,4.607e-05,0.0,0 STARLINK-3573,1 51794U 22017AC  24157.56228336  .00004607  00000-0  30732-3 0  9997,2 51794  53.2165 351.7409 0001262  86.8398 273.2738 15.08844428126984,6917.867,95.437,540.605,538.859,0.0
51794.0,STARLINK-3573,PAYLOAD,2024-06-05 19:51:12,15.08861275,0.0003084,53.2101,350.5476,96.6366,263.4977,0.00043118,6.585e-05,0.0,0 STARLINK-3573,1 51794U 22017AC  24157.82722963  .00006585  00000-0  43118-3 0  9990,2 51794  53.2101 350.5476 0003084  96.6366 263.4977 15.08861275127024,6917.815,95.436,541.814,537.547,0.0
51794.0,STARLINK-3573,PAYLOAD,2024-06-06 05:23:31,15.08857292,5.47e-05,53.2113,348.7659,49.6674,310.4366,0.0004143,6.315e-05,0.0,0 STARLINK-3573,1 51794U 22017AC  24158.22467229  .00006315  00000-0  41430-3 0  9992,2 51794  53.2113 348.7659 0000547  49.6674 310.4366 15.08857292127085,6917.828,95.436,540.071,539.314,0.0
51794.0,STARLINK-3573,PAYLOAD,2024-06-06 21:17:23,15.08836874,8.85e-05,53.2167,345.7935,90.1536,269.9557,-7.5298e-05,-1.486e-05,0.0,0 STARLINK-3573,1 51794U 22017AC  24158.88708320 -.00001486  00000-0 -75298-4 0  9990,2 51794  53.2167 345.7935 0000885  90.1536 269.9557 15.08836874127185,6917.89,95.438,540.367,539.143,0.0
51794.0,STARLINK-3573,PAYLOAD,2024-06-07 21:08:10,15.0884788,0.0001235,53.2114,341.3326,84.6403,275.473,2.1748e-05,5.8e-07,0.0,0 STARLINK-3573,1 51794U 22017AC  24159.88067741  .00000058  00000-0  21748-4 0  9999,2 51794  53.2114 341.3326 0001235  84.6403 275.4730 15.08847880127335,6917.856,95.437,540.576,538.867,0.0
51794.0,STARLINK-3573,PAYLOAD,2024-06-08 11:26:38,15.08851027,0.0001296,53.2115,338.6573,79.8131,280.3007,0.00041771,6.368e-05,0.0,0 STARLINK-3573,1 51794U 22017AC  24160.47683746  .00006368  00000-0  41771-3 0  9992,2 51794  53.2115 338.6573 0001296  79.8131 280.3007 15.08851027127420,6917.847,95.437,540.608,538.815,0.0
51794.0,STARLINK-3573,PAYLOAD,2024-06-09 04:55:53,15.08846806,0.0001357,53.2204,335.3889,83.1637,276.9509,0.00017076,2.431e-05,0.0,0 STARLINK-3573,1 51794U 22017AC  24161.20547739  .00002431  00000-0  17076-3 0  9993,2 51794  53.2204 335.3889 0001357  83.1637 276.9509 15.08846806127539,6917.86,95.437,540.663,538.786,0.0
51794.0,STARLINK-3573,PAYLOAD,2024-06-09 20:49:44,15.08839451,0.0001149,53.2136,332.4129,88.7348,271.3775,-3.3225e-05,-8.17e-06,0.0,0 STARLINK-3573,1 51794U 22017AC  24161.86787779 -.00000817  00000-0 -33225-4 0  9998,2 51794  53.2136 332.4129 0001149  88.7348 271.3775 15.08839451127630,6917.882,95.438,540.542,538.952,0.0
51794.0,STARLINK-3573,PAYLOAD,2024-06-10 11:08:12,15.08839258,0.0001026,53.2143,329.736,91.9787,268.1322,9.3176e-05,1.195e-05,0.0,0 STARLINK-3573,1 51794U 22017AC  24162.46403916  .00001195  00000-0  93176-4 0  9992,2 51794  53.2143 329.7360 0001026  91.9787 268.1322 15.08839258127728,6917.883,95.438,540.457,539.038,0.0
51794.0,STARLINK-3573,PAYLOAD,2024-06-10 17:29:45,15.08844938,0.0001093,53.2135,328.5467,89.385,270.7268,9.904e-05,1.289e-05,0.0,0 STARLINK-3573,1 51794U 22017AC  24162.72899696  .00001289  00000-0  99040-4 0  9995,2 51794  53.2135 328.5467 0001093  89.3850 270.7268 15.08844938127763,6917.865,95.437,540.486,538.974,0.0
51794.0,STARLINK-3573,PAYLOAD,2024-06-11 04:37:27,15.08843014,7.25e-05,53.2159,326.4661,94.5251,265.5824,0.00031496,4.729e-05,0.0,0 STARLINK-3573,1 51794U 22017AC  24163.19267781  .00004729  00000-0  31496-3 0  9993,2 51794  53.2159 326.4661 0000725  94.5251 265.5824 15.08843014127838,6917.871,95.437,540.238,539.235,0.0
51794.0,STARLINK-3573,PAYLOAD,2024-06-11 14:09:46,15.08838752,7.48e-05,53.2169,324.6812,101.7309,258.3767,0.00021796,3.183e-05,0.0,0 STARLINK-3573,1 51794U 22017AC  24163.59012068  .00003183  00000-0  21796-3 0  9998,2 51794  53.2169 324.6812 0000748 101.7309 258.3767 15.08838752127892,6917.884,95.438,540.267,539.232,0.0
51794.0,STARLINK-3573,PAYLOAD,2024-06-11 17:20:32,15.08844509,8.85e-05,53.2178,324.0861,111.2356,248.8731,0.00027651,4.116e-05,0.0,0 STARLINK-3573,1 51794U 22017AC  24163.72259729  .00004116  00000-0  27651-3 0  9993,2 51794  53.2178 324.0861 0000885 111.2356 248.8731 15.08844509127915,6917.867,95.437,540.344,539.119,0.0
51794.0,STARLINK-3573,PAYLOAD,2024-06-12 10:49:47,15.08835414,9.2e-05,53.2172,320.8163,97.0183,263.0914,-4.3487e-07,-2.95e-06,0.0,0 STARLINK-3573,1 51794U 22017AC  24164.45124431 -.00000295  00000-0 -43487-6 0  9999,2 51794  53.2172 320.8163 0000920  97.0183 263.0914 15.08835414128027,6917.894,95.438,540.396,539.123,0.0
51794.0,STARLINK-3573,PAYLOAD,2024-06-12 17:11:20,15.08833476,8.99e-05,53.2184,319.6274,97.7762,262.3332,-2.6976e-06,-3.31e-06,0.0,0 STARLINK-3573,1 51794U 22017AC  24164.71620884 -.00000331  00000-0 -26976-5 0  9995,2 51794  53.2184 319.6274 0000899  97.7762 262.3332 15.08833476128060,6917.9,95.438,540.387,539.143,0.0
51794.0,STARLINK-3573,PAYLOAD,2024-06-13 13:51:20,15.08840208,8.5e-05,53.2182,315.7597,108.4237,251.6847,6.9343e-05,8.16e-06,0.0,0 STARLINK-3573,1 51794U 22017AC  24165.57732388  .00000816  00000-0  69343-4 0  9993,2 51794  53.2182 315.7597 0000850 108.4237 251.6847 15.08840208128194,6917.88,95.438,540.333,539.157,0.0
51794.0,STARLINK-3573,PAYLOAD,2024-06-13 17:02:06,15.08843558,7.24e-05,53.2181,315.1686,83.7004,276.407,0.00015435,2.17e-05,0.0,0 STARLINK-3573,1 51794U 22017AC  24165.70980123  .00002170  00000-0  15435-3 0  9997,2 51794  53.2181 315.1686 0000724  83.7004 276.4070 15.08843558128210,6917.87,95.437,540.235,539.234,0.0
51794.0,STARLINK-3573,PAYLOAD,2024-06-14 13:42:08,15.08837096,7.44e-05,53.2173,311.3047,88.2724,271.8353,0.00012672,1.73e-05,0.0,0 STARLINK-3573,1 51794U 22017AC  24166.57092719  .00001730  00000-0  12672-3 0  9999,2 51794  53.2173 311.3047 0000744  88.2724 271.8353 15.08837096128348,6917.889,95.438,540.269,539.24,0.0
51794.0,STARLINK-3573,PAYLOAD,2024-06-14 18:28:17,15.08839854,8.25e-05,53.2191,310.4105,83.8822,276.2264,0.00018135,2.6e-05,0.0,0 STARLINK-3573,1 51794U 22017AC  24166.76964584  .00002600  00000-0  18135-3 0  9995,2 51794  53.2191 310.4105 0000825  83.8822 276.2264 15.08839854128370,6917.881,95.438,540.317,539.175,0.0
51794.0,STARLINK-3573,PAYLOAD,2024-06-15 13:32:54,15.08848283,7.16e-05,53.2181,306.8418,90.0928,270.0146,5.3647e-05,5.66e-06,0.0,0 STARLINK-3573,1 51794U 22017AC  24167.56452289  .00000566  00000-0  53647-4 0  9995,2 51794  53.2181 306.8418 0000716  90.0928 270.0146 15.08848283128491,6917.855,95.437,540.215,539.225,0.0
51794.0,STARLINK-3573,PAYLOAD,2024-06-15 18:19:03,15.08856425,8.16e-05,53.2186,305.9491,81.4731,278.6354,0.00011916,1.61e-05,0.0,0 STARLINK-3573,1 51794U 22017AC  24167.76323587  .00001610  00000-0  11916-3 0  9998,2 51794  53.2186 305.9491 0000816  81.4731 278.6354 15.08856425128520,6917.83,95.437,540.26,539.131,0.0
